{
"type":"FeatureCollection",

"features":[

{

"type":"Feature",

"properties":{


"id":"ASK001",


"name_en":"Askolan Hiidenkirnut",

"name_fi":"Askolan hiidenkirnut",


"group":"Askola Giant Kettles",


"region":"Uusimaa",


"municipality":"Askola",


"country":"Finland",


"description_en":
"One of Finland's best known groups of giant kettles formed after the Ice Age.",


"description_fi":
"Yksi Suomen tunnetuimmista hiidenkirnujen ryhmistä.",


"type":"Giant kettles",


"size_category":"Large",


"depth_m":"10.3",


"diameter_m":"6.8",


"accessibility":"Easy hiking trail",


"visit_time":"1-2 hours",


"parking":true,


"trail":true,


"image":
"assets/images/hero.jpg",


"source":
"Local geological information",


"verified":true


},


"geometry":{

"type":"Point",

"coordinates":[25.6438,60.5335]

}

}

]

}
