{
    "type": "FeatureCollection",
    "name": "Wetterau nach Feierabend",
    "features": [
        {
            "type": "Feature",
            "properties": {
                "id": "REI001",
                "slug": "bergwerksee-reichelsheim",
                "name": "Bergwerksee Reichelsheim",
                "municipality": "Reichelsheim",
                "area": "Wetterau",
                "category": "Natur",
                "category_slug": "natur",
                "published_at": "2026-09-23",
                "updated_at": "2026-09-29",
                "detail_url": "/natur/bergwerksee-reichelsheim/",
                "short_description": "Ein ehemaliger Braunkohletagebau in der Wetterauer Seenlandschaft.",
                "description": "Der Bergwerksee zwischen Weckesheim und Dorn-Assenheim entstand aus einem ehemaligen Braunkohletagebau. Rund um den See befinden sich Streuobstwiesen und der Weidenpavillon. Zugänge und örtliche Hinweise müssen beachtet werden.",
                "visit_time": "1–2 Stunden",
                "parking": false,
                "family_friendly": true,
                "accessible": false,
                "best_season": "Frühling bis Herbst",
                "image": "assets/images/locations/bergwerksee-reichelsheim.png",
                "image_alt": "Blick über den Bergwerksee bei Reichelsheim in der Wetterau",
                "instagram_url": "https://www.instagram.com/reel/DdudkaCM6V9/",
                "youtube_url": "",
                "website_url": "https://www.stadt-reichelsheim.de/freizeit-tourismus/seen-gewaesser/bergwerksee/der-bergwerksee/",
                "source_url": "https://www.stadt-reichelsheim.de/freizeit-tourismus/seen-gewaesser/bergwerksee/der-bergwerksee/",
                "verified": true,
                "tags": [
                    "Bergwerksee",
                    "Braunkohle",
                    "Wetterauer Seenplatte",
                    "Streuobstwiesen",
                    "Weidenpavillon"
                ]
            },
            "geometry": {
                "type": "Point",
                "coordinates": [
                    8.8448,
                    50.3497
                ]
            }
        },
        {
            "type": "Feature",
            "properties": {
                "id": "KAR001",
                "slug": "aussichtsplattform-ludwigsquelle-karben",
                "name": "Aussichtsplattform NSG Ludwigsquelle",
                "municipality": "Karben",
                "area": "Wetterau",
                "category": "Natur",
                "category_slug": "natur",
                "published_at": "2026-09-27",
                "updated_at": "2026-09-29",
                "detail_url": "/natur/aussichtsplattform-ludwigsquelle-karben/",
                "short_description": "Eine ruhige Aussichtsplattform zur Vogel- und Naturbeobachtung.",
                "description": "Am Naturschutzgebiet Ludwigsquelle in der Nähe von Groß-Karben befindet sich eine hölzerne Aussichtsplattform direkt am Radweg. Eine Informationstafel informiert über das rund 17 Hektar große Schutzgebiet. Die Plattform ermöglicht Einblicke in die Feuchtwiesen und Lebensräume verschiedener Vogelarten. Im Naturschutzgebiet müssen die ausgewiesenen Wege und örtlichen Schutzregeln beachtet werden.",
                "visit_time": "30–60 Minuten",
                "parking": false,
                "family_friendly": true,
                "accessible": false,
                "best_season": "Ganzjährig",
                "image": "assets/images/locations/beobachtungsturm_ludwigsquelle_karben.jpg",
                "image_alt": "Hölzerne Aussichtsplattform am Naturschutzgebiet Ludwigsquelle bei Karben",
                "instagram_url": "https://www.instagram.com/reel/DdzJbBRs4bt/",
                "youtube_url": "",
                "website_url": "https://www.nabu-karben.de/besondere-orte-in-karben/aussichtsplattform-naturschutzgeb-ludwigsquelle/",
                "source_url": "https://www.nabu-karben.de/besondere-orte-in-karben/aussichtsplattform-naturschutzgeb-ludwigsquelle/",
                "verified": true,
                "tags": [
                    "Ludwigsquelle",
                    "Naturschutzgebiet",
                    "NABU",
                    "Birdwatching",
                    "Vogelbeobachtung",
                    "Aussichtsplattform",
                    "Feuchtwiesen",
                    "Naturfotografie"
                ]
            },
            "geometry": {
                "type": "Point",
                "coordinates": [
                    8.779569358130692,
                    50.251804934336064
                ]
            }
        },{
    "type": "Feature",
    "properties": {
        "id": "BUT001",
        "slug": "hausbergturm-butzbach",
        "name": "Hausbergturm bei Butzbach",
        "municipality": "Butzbach",
        "area": "Wetterau und Taunus",
        "category": "Aussichtspunkt",
        "category_slug": "aussichtspunkte",
        "published_at": "2026-10-07",
        "updated_at": "2026-10-07",
        "detail_url": "/aussichtspunkte/hausbergturm-butzbach/",
        "short_description": "Ein Aussichtsturm mit weitem Blick über die Wetterau und den Taunus.",
        "description": "Der Hausbergturm steht auf dem bewaldeten Hausberg südlich von Butzbach. Von der Aussichtsplattform öffnet sich ein weiter Blick über die Wetterau und die umliegende Landschaft. Der Turm lässt sich mit einer kurzen Wanderung oder einer längeren Runde durch den Wald verbinden.",
        "visit_time": "1–3 Stunden",
        "parking": true,
        "family_friendly": true,
        "accessible": false,
        "best_season": "Ganzjährig",
        "image": "assets/images/locations/hausbergturm-butzbach.jpg",
        "image_alt": "Aussicht vom Hausbergturm bei Butzbach über die Wetterau",
        "instagram_url": "https://www.instagram.com/wetterau_nach_feierabend/reel/DeQ-2S8s78C/",
        "youtube_url": "",
        "website_url": "",
        "source_url": "",
        "verified": true,
        "tags": [
            "Hausberg",
            "Butzbach",
            "Hausbergturm",
            "Aussichtsturm",
            "Aussichtspunkt",
            "Wandern",
            "Taunus",
            "Wetterau"
        ]
    },
    "geometry": {
        "type": "Point",
        "coordinates": [
            8.614656543757333,
            50.41258995880704
        ]
    }
}
    ]
}
